{"type":"FeatureCollection","features":[{"type":"Feature","properties":{"name":"黄河","source_name":"Huang He"},"geometry":{"type":"MultiLineString","coordinates":[[[95.9805246368026,35.1180435452735],[96.4510806359626,35.105263545876],[96.9571956363696,34.9927635452015],[97.0627476367941,34.9255425452523],[97.3110846360472,34.8291525455536],[97.3991406363314,34.8147075458166],[97.5391086365544,34.876159545027],[97.5503046366497,34.8762765450266],[97.5758106365517,34.8805695451484],[97.6158696366745,34.8954735453678],[97.6480086366893,34.9130235453004],[97.6817856366978,34.9388535457546],[97.7072736366691,34.9693185450149],[97.7539656360054,35.060047545358],[97.7672046367846,35.0891535457995],[97.773036635932,35.0999985458963],[97.7772126360543,35.1036075450522],[97.7963736365342,35.109439545099],[97.804698636433,35.1099885452352],[97.8460986363431,35.1080445455194],[97.8944376360881,35.1008265454088],[97.9638816360288,35.0897205458666],[97.9836006361605,35.0858235451205],[97.9935906363988,35.0802705453494],[98.0019336362284,35.0727735458625],[98.0727726366479,34.9744395455486],[98.1347196362023,34.8902715455954],[98.2808256361942,34.839439545099],[98.3422056365809,34.8291615450693],[98.3666586364869,34.8222225452344],[98.3816526363601,34.8136095455441],[98.3855496362068,34.8097215452132],[98.3933256359694,34.7947185458243],[98.3986086367792,34.769716545782],[98.4049806365472,34.6477755450055],[98.4035946364833,34.641934545443],[98.3991576360161,34.6319355456889],[98.3930556361088,34.6233225450994],[98.3841546366272,34.6166625455401],[98.379150636093,34.5477765452514],[98.4933156362077,34.4113725457065],[98.5022076361735,34.4047125452478],[98.6427606363943,34.3491645458072],[98.6641536363813,34.346653545125],[98.6969316361861,34.3477695453283],[98.7144276363264,34.3547085451633],[98.7244266360805,34.3672095451844],[98.7258216365593,34.3727625458549],[98.7249936361475,34.3852725453917],[98.7138786361901,34.4344395455486],[98.7138786361901,34.4477685450823],[98.7244266360805,34.4530425454772],[98.8949946363934,34.4666595457015],[99.0102756367113,34.4319375452815],[99.016098636343,34.4299935455657],[99.0427566363098,34.410274545434],[99.0516576366907,34.4035965450446],[99.060810636102,34.3824915457483],[99.0658056362212,34.3574985452217],[99.0630336360935,34.3460955454731],[99.0430446361011,34.2255495451754],[99.0416586360373,34.0486095450945],[99.0469326364321,34.0313835457141],[99.1063686362037,33.9110985457613],[99.2424846359572,33.7783305457182],[99.2630496364316,33.7605555453022],[99.3083196367419,33.7358235451206],[99.3152676360926,33.7347165453323],[99.3435996359145,33.7358235451206],[99.3510876367851,33.7369395453238],[99.366657636241,33.7452735456376],[99.3755406366911,33.751933545197],[99.3875016360917,33.7760985453116],[99.3989946363934,33.8197035452824],[99.4208196365171,33.8230515458922],[99.4452546364923,33.8233305452685],[99.4760886365814,33.8147085451633],[99.5241576364658,33.8000025450814],[99.5313756365764,33.7919385455275],[99.5380356361358,33.7760985453116],[99.546099636589,33.7686015458247],[99.5597076363983,33.766387545349],[99.6180456367968,33.7611135458535],[99.6422106360121,33.7613835457141],[99.6555486359608,33.7647225450095],[99.6791556364236,33.780274545434],[99.6924756364415,33.7969425451624],[99.705264636254,33.8072115456764],[99.712770636156,33.8083275458796],[99.7491486365004,33.8060955454731],[99.7552596359235,33.804160545273],[99.8349906363089,33.7744335458715],[99.8402736362194,33.7719405451201],[100.006944636686,33.6719325458504],[100.011381636254,33.6686025451714],[100.012497636457,33.6622125454726],[100.016664636164,33.6483255453876],[100.025817636475,33.6347175455783],[100.029435636046,33.6308205457316],[100.045257636331,33.6158265458585],[100.082220636673,33.5835975452906],[100.133880636682,33.5722215458877],[100.154985635978,33.56944954576],[100.163319636292,33.5699895454812],[100.169142635924,33.5722215458877],[100.236102636428,33.6283275458796],[100.244139636535,33.6355545455059],[100.277484636407,33.6724905455023],[100.283874636106,33.6811125456076],[100.288320636089,33.6908235455702],[100.286376636373,33.6963855457564],[100.276089635928,33.7163835452645],[100.2733176367,33.721099545108],[100.312485636203,33.744994545362],[100.384719636202,33.7794375455064],[100.468599636364,33.8227725456165],[100.623876636598,33.9038715452357],[100.65416163655,33.9210975455154],[100.67831763625,33.929440545345],[100.775274636016,33.9247065455707],[100.781376635923,33.9227625458549],[100.785534636115,33.9194415455909],[100.796649636072,33.9002715455954],[100.800267636542,33.8891655451538],[100.805820636313,33.879715545536],[100.876920636178,33.7958265458585],[100.915548635961,33.7577745456588],[100.969440636376,33.7291545451462],[100.997484636407,33.7244385453027],[101.011938636559,33.724159545027],[101.016663635918,33.7272105454304],[101.037489636737,33.7716615457438],[101.038038635974,33.7780425450275],[101.036103636674,33.7836135456287],[101.023881636029,33.8013795456296],[101.01416163655,33.8291625453153],[101.011938636559,33.8416635453364],[101.013045636347,33.8541645453575],[101.030541636487,33.8813805458755],[101.035536636607,33.8799945458117],[101.134428636572,33.8491605457227],[101.143329636054,33.8424915457483],[101.145264636254,33.8369385450778],[101.145534636115,33.8244375450567],[101.148324636173,33.8194425458369],[101.262498636703,33.7177605458126],[101.26833063675,33.7158255456125],[101.377473636399,33.692767545286],[101.537763636683,33.6969345458926],[101.733873636759,33.6838755453202],[101.748318636496,33.68221054588],[101.759991636105,33.6783315450648],[101.773032636747,33.6680535450351],[101.811102635978,33.6297225454592],[101.888601635957,33.5455455450909],[101.890455636019,33.5353305452685],[101.887773636444,33.5147205454169],[101.886936636517,33.4897185453746],[101.888583636026,33.4841565451885],[101.892210636012,33.4799895454812],[101.965542636284,33.4038765455662],[101.982750636633,33.3902685457568],[102.022215636343,33.360550545871],[102.120819636517,33.3324975454254],[102.167484636407,33.3333255458373],[102.181650636768,33.3355485458288],[102.191658636037,33.3422175458031],[102.217758636352,33.3622065457955],[102.221097636547,33.3663915454335],[102.453603635999,33.4691535457995],[102.4611096368,33.4697115454515],[102.466986636224,33.4677315458742],[102.478605636041,33.4602255450729],[102.447204636785,33.5233245455914],[102.343326636215,33.6185985450869],[102.325821636559,33.6463815456718],[102.323319636292,33.6510975455154],[102.321924636713,33.6644355454641],[102.332220636673,33.6974925455446],[102.318882636724,33.7572165451075],[102.264162636796,33.8283255453877],[102.203871636267,33.9052665457145],[102.192747636794,33.9169395453238],[102.169149636746,33.9397095458589],[102.152211636258,33.953326545184],[102.128307636488,33.9619395457735],[102.117750636183,33.9497175451286],[102.112494636618,33.9483315450648],[102.085539636445,33.953326545184],[102.025275636262,33.9683295454722],[101.910804636425,33.9972195458454],[101.740263636458,34.0794345456678],[101.64054363608,34.1358285454511],[101.636106636512,34.1394375455064],[101.633604636245,34.1441535453499],[101.621643635945,34.1669325454007],[101.608764636479,34.189603545867],[101.601384636092,34.1916555451674],[101.469435636046,34.2269355452393],[101.42276163664,34.2291585452307],[101.39471763661,34.2333255458373],[101.228316636004,34.298881545447],[101.201100636385,34.3394265454987],[101.195817636475,34.3708275456548],[101.168592636441,34.4377605458126],[101.146380636457,34.4833275454299],[101.135940636151,34.4943795451799],[101.094711636033,34.5013905456372],[100.991094636708,34.5461025453962],[100.909149636746,34.6172115456764],[100.872483636611,34.700542545702],[100.86693063594,34.7102715455954],[100.857480636322,34.7161035456422],[100.841937636313,34.7172105454304],[100.834431636411,34.7161035456422],[100.793868636428,34.6933155451763],[100.774158636712,34.6747125452478],[100.762503636134,34.6699875458886],[100.715001636317,34.665829545697],[100.708323635927,34.6655415450064],[100.67498763647,34.6722195453958],[100.620528635988,34.6922175458031],[100.592484635957,34.7094345456678],[100.585266636746,34.7177595455667],[100.540815636433,34.7583315450648],[100.507218636631,34.7863845455104],[100.469436636292,34.8097215452132],[100.464153636381,34.8124935453409],[100.458033636543,34.8141585456804],[100.411098636793,34.8161025453962],[100.35470463611,34.8241665458494],[100.343319636292,34.8286125458324],[100.334427636326,34.835263545876],[100.314699636679,34.8541635451116],[100.28719563637,34.911376545791],[100.249710636237,35.0294385457523],[100.245255636738,35.1160995455576],[100.244706636602,35.146096545719],[100.242753636471,35.1969375457312],[100.230549636656,35.3055495451754],[100.196088636581,35.3930565453234],[100.191363636323,35.4019305453584],[100.166379636211,35.4383265456336],[100.185252636,35.5527705451246],[100.297761636191,35.7536055454596],[100.30109163597,35.7580425450275],[100.376079636166,35.7849975452006],[100.383882636275,35.7858255456125],[100.400271636627,35.7858255456125],[100.441653636606,35.784160545273],[100.512501636541,35.8480425450275],[100.529709635991,35.8688775453625],[100.535532636522,35.871100545354],[100.599990636759,35.8766535451251],[100.605822636805,35.8788765451165],[100.716936636517,35.9758155458508],[100.725819636067,35.9894325451759],[100.728519636472,35.9999985458962],[100.722489636288,36.022759545117],[100.722759636148,36.0361065454807],[100.731651636114,36.0497145452901],[100.748868635979,36.0705495456251],[100.753053636516,36.0741675451961],[100.814703636764,36.1016625450904],[100.826664636164,36.1063785458333],[100.847220636223,36.1111125456076],[100.854978636055,36.1119405451201],[100.961106636062,36.1150005450392],[100.984416636319,36.1136055454596],[101.008041636712,36.1052715451457],[101.018058636397,36.0991605457227],[101.036931636186,36.0794325451758],[101.045814636636,36.0727725456165],[101.056362636527,36.0674985452217],[101.142204636335,36.0397155455361],[101.148324636173,36.0377715458202],[101.162202636742,36.0352695455531],[101.18193063639,36.0547095454093],[101.194971636132,36.0585975457402],[101.256378635965,36.0538815458967],[101.295537635953,36.0444495453103],[101.300262636212,36.0411105451156],[101.309145636662,36.0272145455149],[101.319153635932,36.0211035451925],[101.342481636119,36.0197175451286],[101.41387863619,36.0277725451669],[101.420538636649,36.0294375455064],[101.471649636522,36.0444495453103],[101.497758636352,36.0652755452303],[101.509431635961,36.0769485457388],[101.545818636721,36.0966585454556],[101.567220636223,36.1075035455522],[101.654979636301,36.1361055452348],[101.667750636183,36.1399935455657],[101.688306636242,36.1444395455487],[101.746932636432,36.1494345456678],[101.879151636339,36.0963795451799],[101.955264636254,36.0419385455275],[102.030630636795,35.9589495450855],[102.033402636023,35.9542245457263],[102.065649636522,35.8786605450481],[102.070680636502,35.8544865454178],[102.07846563668,35.8322655450189],[102.088203636089,35.8189365454853],[102.10236963645,35.8094865458675],[102.109866635937,35.8089375457312],[102.156261635966,35.8139325458504],[102.186528635988,35.8383855457564],[102.242103636674,35.8569885456849],[102.257664636614,35.858653545125],[102.348825636194,35.8594815455369],[102.412779636571,35.8592025452613],[102.420564636749,35.8586445456094],[102.469776636283,35.8503015457798],[102.486453636426,35.8422465457415],[102.504804636425,35.8291875451691],[102.511761636191,35.8278015451053],[102.727464635984,35.8044645454025],[102.742188635997,35.8069755451853],[102.758325636419,35.8147515458472],[102.772779636571,35.8239315456044],[102.783615636253,35.8361535453499],[102.80500863624,35.8397805453359],[102.841431635961,35.8389615453391],[102.849207636623,35.8384215456179],[102.975387635931,35.8129065453009],[103.052355636603,35.7921075457267],[103.063461636146,35.7873825454682],[103.067088636132,35.7832155457609],[103.135164635939,35.774890545862],[103.237674636375,35.8254705455293],[103.290450636588,35.8546485456939],[103.355178636685,35.9068665453548],[103.355178636685,35.9082525454187],[103.202133635959,35.9543775455873],[103.198515636388,35.9585445452946],[103.194897635917,35.9640975450657],[103.199064636524,35.974654545371],[103.219638636514,35.992987545439],[103.234758636802,36.0002235454803],[103.360029636459,36.1060005454888],[103.385814636636,36.11221054588],[103.407477636484,36.1230465455617],[103.411653636606,36.1263855457564],[103.438869636225,36.1602705453494],[103.443864636344,36.1630425454771],[103.450002636113,36.1652655454686],[103.46638263605,36.1647075458166],[103.647489636737,36.1260975450657],[103.664697636187,36.1186005455788],[103.673310636777,36.1116615457438],[103.684983636386,36.0999975456502],[103.696089635928,36.0811065450311],[103.708329636504,36.0769485457388],[103.89414363662,36.0361065454807],[103.909722636491,36.0349995456925],[103.9252656365,36.0363855457564],[103.969149636746,36.0427755454551],[104.025273636669,36.0536025456211],[104.030547636165,36.0563835452645],[104.039151636339,36.0633315455145],[104.051094636708,36.0813855453067],[104.04470463611,36.1213725457065],[104.040546635919,36.1247115459012],[104.009991636105,36.1349895450315],[104.009154636178,36.1399935455657],[104.013609636576,36.150541545456],[104.028045636797,36.1736085452982],[104.031375636576,36.1777755450054],[104.189973636174,36.3227745452091],[104.195256636085,36.3255555457519],[104.228862636302,36.3402705453494],[104.241093636462,36.3444375450567],[104.26443963658,36.3466515455324],[104.31805263672,36.3494325451759],[104.401923636467,36.372760545363],[104.610804636425,36.4960965457191],[104.708328636258,36.5741625457649],[104.711658636037,36.5783295454722],[104.722494636618,36.6622095456341],[104.719146636009,36.6733245455914],[104.593875636352,36.8172165451075],[104.589708636644,36.8205465457865],[104.530272635973,36.8513895453913],[104.518329636504,36.8555565450985],[104.460540636241,36.8722155453112],[104.445816636229,36.8744385453027],[104.39276163664,36.8777685450823],[104.329986636674,36.8819355456889],[104.325549636207,36.8855535452599],[104.30442663608,37.0263855457564],[104.305821636559,37.1399925453198],[104.305821636559,37.1455455450909],[104.3094216362,37.1497215452132],[104.315262636661,37.1519265452739],[104.331939636805,37.1527725456165],[104.355546636368,37.1519265452739],[104.362764636479,37.1533215457528],[104.389710636237,37.1597205458665],[104.395830636075,37.1616645455824],[104.490267636542,37.1938845457353],[104.616384636542,37.2580455457654],[104.678592636441,37.3005435450486],[104.688312635919,37.306654545371],[104.733870636021,37.3330515458922],[104.775270635931,37.3338795454047],[104.817219635977,37.3405485453791],[104.823321636784,37.3427625458548],[104.956935636271,37.3924875456638],[104.985267636093,37.4174985452217],[104.993322636131,37.4252745458836],[105.112203636089,37.4811015455999],[105.119133636408,37.4824875456637],[105.275544636776,37.4913795456296],[105.470538636649,37.4969325454007],[105.495819636067,37.4974905450526],[105.545679636706,37.4950335450621],[105.553860636259,37.4941515457573],[105.576666636656,37.4969325454007],[105.583056636355,37.4988855455316],[105.678321636334,37.5341655456035],[105.762210636012,37.5577725451669],[105.863595636729,37.5749985454466],[105.870525636149,37.5763845455104],[105.88136163673,37.5816675454209],[105.893601636406,37.5927645454475],[105.899154636178,37.6024935453409],[105.920817636025,37.6413825454682],[105.945531636276,37.6988745455239],[105.947484636407,37.7044365457101],[105.962487636695,37.7488785456084],[105.961650636768,37.798882545693],[105.959994635944,37.8116625450904],[105.957069635955,37.8233895453913],[105.976653636156,37.8544395455486],[105.989424636038,37.8724935453409],[106.013049636432,37.902769545778],[106.065807636713,37.9447095454092],[106.085535636361,37.9577685450823],[106.096371636042,37.9633305452685],[106.112202636742,37.971376545791],[106.118592636441,37.9733205455068],[106.126368636204,37.972492545095],[106.133604636245,37.9738695456431],[106.13887863664,37.9766505452865],[106.16498763647,37.9977735454128],[106.18914363617,38.0205435450486],[106.203048636186,38.0447175455783],[106.222488636042,38.0855415450063],[106.250829636279,38.169448545514],[106.251099636139,38.178169545688],[106.277694636798,38.2275255455675],[106.344141636128,38.2983375456413],[106.479708636644,38.3952765454762],[106.509714636321,38.4205485453791],[106.523322636131,38.4355425452523],[106.528875636801,38.44526254563],[106.548603636449,38.4874905450527],[106.552203636089,38.5230495454002],[106.545255636738,38.5244355454641],[106.535535636361,38.5308255451628],[106.516932636432,38.5647105456552],[106.516095636504,38.5708305454933],[106.517490636084,38.584159545027],[106.524699636679,38.5991625453153],[106.603593636237,38.7197085456129],[106.633428636123,38.7834195455756],[106.678131636366,38.8341525451039],[106.696365636365,38.8408305454933],[106.710819636517,38.8502715455954],[106.794438636334,38.931667545421],[106.845261636415,38.9899875458886],[106.869705636806,39.0269325454007],[106.87082163611,39.0333405450302],[106.860381636703,39.0560745457038],[106.875537635953,39.097222545684],[106.877454636223,39.1027665450401],[106.867203636539,39.1224945455868],[106.862766636071,39.1258245453665],[106.860264636704,39.1308195454857],[106.84498263614,39.1602765450266],[106.741653636606,39.4074885454601],[106.755558636622,39.5088915452087],[106.763271636177,39.533902545666],[106.769994635944,39.5469435454083],[106.779435636046,39.560542545702],[106.781370636246,39.5660955454731],[106.780335636181,39.5809995456925],[106.786923636017,39.6613695458679],[106.763604636245,39.7597215452132],[106.718325636419,40.0147185458243],[106.779435636046,40.0997145452901],[106.858320636089,40.1785995453328],[106.869138636739,40.1827755454551],[106.87637463678,40.1758275452051],[106.986642636149,40.2380445455194],[107.007486635999,40.2508245458162],[107.013048636186,40.2611115453616],[107.031939636805,40.3088835450396],[107.051370636246,40.3247145457398]],[[107.051370636246,40.3247145457398],[107.068056636804,40.332769545778],[107.103588636806,40.3397175451287],[107.121372636738,40.3469355452393],[107.155257636331,40.3838805456507],[107.160261635966,40.3941585456804],[107.161656636445,40.4072085458378],[107.160810636102,40.4136075450522],[107.144952635955,40.4581395455037],[107.189142635924,40.4905485453791],[107.20833063675,40.5222195453957],[107.202480636772,40.5313815452222],[107.200275636711,40.5502725458414],[107.201103636224,40.5708285459007],[107.20304763594,40.5763815456718],[107.209716635914,40.5852645452226],[107.26054863641,40.6230465455617],[107.455551636699,40.702768545532],[107.635821636559,40.7730495454002],[107.696094636259,40.8160965457191],[107.696364636119,40.8230535454848],[107.700270636381,40.8269415458157],[107.710260636619,40.8366525457784],[107.71387863619,40.8399915450738],[107.736927636102,40.8499995452429],[107.750823636602,40.8541665458495],[107.842758636802,40.8661005458036],[107.865816636229,40.8683235457951],[107.873871636267,40.8674865458675],[108.067767636767,40.8424935453409],[108.229155636424,40.8136125453827],[108.309417636115,40.8033165454223],[108.326103636674,40.8016515450828],[108.369132636162,40.8099945458117],[108.418047636389,40.8166635457861],[108.4272006367,40.8163845455104],[108.446361636281,40.8099945458117],[108.529161636101,40.7383275458796],[108.555549636207,40.7083305457182],[108.567222636715,40.6827705451246],[108.585267636093,40.6622055455496],[108.602196636166,40.654159545027],[108.674898636163,40.6355655455135],[108.688578636595,40.6138845457352],[108.692196636166,40.6097175451287],[108.765276636508,40.5580485456039],[108.770532636072,40.5549885456849],[108.825270635931,40.5386085457478],[108.960261635966,40.5183315450648],[108.97747863673,40.5169365454852],[109.000545636572,40.5197175451287],[109.005261636415,40.5230475458076],[109.000275636711,40.5460965457191],[109.003326636215,40.5508305454933],[109.042485636203,40.5516585450059],[109.080276636058,40.5422175458032],[109.112766636071,40.5324885450104],[109.146381636703,40.5161085450733],[109.207221636469,40.4827635452015],[109.391937636313,40.4677605458126],[109.456935636271,40.4863815456719],[109.4691486365,40.4908275456548],[109.469436636292,40.4961015451502],[109.464711636033,40.5199875458886],[109.549707636398,40.5378435455432],[109.607793635968,40.5446835453094],[109.615020636493,40.5430455453157],[109.651983635936,40.5092955456529],[109.676994636393,40.4860665455347],[109.694220636673,40.4716845451057],[109.708953636201,40.4739615457888],[109.746744636056,40.4932845456453],[109.830984636632,40.5188535457546],[109.892112636189,40.5214995454677],[109.972383636296,40.5182325458953],[109.979601636406,40.5165765450715],[110.000184636812,40.5080265455887],[110.060529636234,40.512499545018],[110.156937636763,40.5188805452011],[110.233869636674,40.5080445455194],[110.296932636432,40.4727645454475],[110.386653636156,40.4255505454214],[110.601087636785,40.3213845450608],[110.875263636008,40.2522195453957],[110.890545636572,40.2494385457524],[110.984145636212,40.2560985453117],[110.99053563681,40.2577725451669],[111.041655636199,40.2791655451538],[111.098598636118,40.2519405451201],[111.303591636645,40.1491605457227],[111.37275663631,40.0780425450275],[111.396381636703,40.034995545608],[111.410259636373,40.0063845455104],[111.4333176367,39.9308295452474],[111.439698635983,39.9088785456084],[111.437484636407,39.9033165454223],[111.40747863673,39.8430435457231],[111.394149636297,39.817222545684],[111.375537635953,39.788890545862],[111.358032636297,39.7669395453238],[111.354981636793,39.7622145450653],[111.352767636317,39.7566615452942],[111.352767636317,39.737212545023],[111.354153636381,39.7316505457362],[111.357483636161,39.727213545269],[111.389982636589,39.6969375457312],[111.402771636402,39.6858225457739],[111.419142635924,39.6774885454601],[111.423309636531,39.6736095455441],[111.456645635987,39.6216525453287],[111.458040636466,39.6160995455576],[111.45749163633,39.6091605457227],[111.424992636801,39.5197185453746],[111.422760636394,39.5141655456035],[111.343596636076,39.4347225450095],[111.326667636003,39.4272165451075],[111.307479636076,39.421933545197],[111.283053636516,39.4210965452694],[111.222762635987,39.4263795451799],[111.188580636187,39.4266585454556],[111.173307636039,39.4252725453917],[111.143445636707,39.4157865450131],[111.118587636111,39.398047545358],[111.105546636368,39.3808215450783],[111.108597636772,39.3763845455104],[111.113871636267,39.3733155451763],[111.136938636109,39.3694365452604],[111.169707636398,39.3613815452222],[111.232482636365,39.3061035456421],[111.233868636428,39.3002715455954],[111.232212636504,39.2941515457573],[111.131367636407,39.0777735454129],[111.124977636709,39.0683235457951],[111.103863636098,39.0497205458665],[111.079986636674,39.0336105457901],[111.062481636119,39.0269325454007],[111.019722636491,39.0199935455657],[111.002775636486,39.0122175458031],[110.993316636454,39.0058275452051],[110.977197635962,38.9830485451543],[110.974425636734,38.9705475451332],[110.993586636314,38.930542545702],[111.002208636419,38.9035965450446],[111.000831636771,38.8897185453746],[110.994711636033,38.8460955454731],[110.993316636454,38.8399935455657],[110.968323635927,38.7874965456292],[110.943861636505,38.7399945458117],[110.933871636267,38.725819545036],[110.916654636402,38.7113835457141],[110.903586636314,38.6930415452312],[110.869980636098,38.633326545184],[110.867757636106,38.6147145457397],[110.872482636365,38.6047065455707],[110.877765636275,38.5952745458836],[110.898609636126,38.5769415458157],[110.900814636187,38.5719375452815],[110.891373636084,38.5208265454088],[110.858316636004,38.4611115453616],[110.851089636378,38.4522195453957],[110.673033636093,38.3136105457901],[110.663610635922,38.3072115456764],[110.651658636037,38.3027745452092],[110.637501636092,38.3008305454933],[110.603859636013,38.3022165455572],[110.597487636245,38.300542545702],[110.588046636143,38.2938825452433],[110.573610635922,38.2772145455149],[110.507766636521,38.1930465455617],[110.503329636054,38.18221054588],[110.501664636614,38.1627615456089],[110.494707635949,38.0813835457141],[110.499999636274,38.0219385455275],[110.512212636504,37.9577685450823],[110.514435636495,37.9527735458625],[110.51943963613,37.9497225454592],[110.560254636043,37.9388775453625],[110.571378636415,37.9333245455913],[110.591934636474,37.9144335458715],[110.603859636013,37.8963795451799],[110.63053563681,37.8524865454178],[110.656932636432,37.805263545876],[110.664150636543,37.7972175453535],[110.67360063616,37.7902695451035],[110.7113826365,37.777489545706],[110.733603635999,37.7666625455401],[110.74275663631,37.7597145452901],[110.749146636009,37.7511105451156],[110.787486636,37.6660965457191],[110.789979636751,37.6549905452775],[110.784993636147,37.567222545684],[110.783058635947,37.5538845457352],[110.744709636441,37.4691585452308],[110.739696636391,37.4591595454767],[110.73580863606,37.4549925457694],[110.72026563605,37.4466585454555],[110.652477636034,37.4333295450226],[110.646942636194,37.4308275456548],[110.639166636431,37.4227635452015],[110.636934636025,37.4172105454304],[110.627763636683,37.3883295454722],[110.627475635992,37.3813815452222],[110.629428636123,37.375828545451],[110.632758636802,37.3713735450531],[110.648607636533,37.3630575455693],[110.681367636407,37.3530585458153],[110.686371636042,37.3499985458963],[110.689422636446,37.3455435454983],[110.690808636509,37.3399905457272],[110.689422636446,37.3336005451291],[110.676093636013,37.2938835454893],[110.67164763603,37.282768545532],[110.512770636156,37.1060985453117],[110.460534636564,37.0491645458072],[110.444973636624,37.040839545009],[110.435406636107,37.0381035456422],[110.416074636735,37.0288695451934],[110.397489636737,36.9877755450054],[110.39638263605,36.8999895454812],[110.412492636126,36.7994325451759],[110.430546635919,36.6994335454218],[110.486373636534,36.5813805458756],[110.487759636598,36.5758275452051],[110.494977636709,36.5216655458283],[110.496642636149,36.4963845455104],[110.494419636157,36.4760985453117],[110.480820636763,36.3980415456808],[110.473035636585,36.3752625456301],[110.461929636144,36.355552545014],[110.457222636715,36.337489545706],[110.445531636276,36.1633215457528],[110.448321636335,36.1324875456638],[110.459157636016,36.0872085458378],[110.48380863606,35.9999985458962],[110.560011636528,35.8175145455599],[110.561919636382,35.7958245453665],[110.569992636351,35.728873545278],[110.574708636195,35.6994345456678],[110.613912636459,35.6122065457955],[110.611923636467,35.6074995454677],[110.612490636534,35.5947105456552],[110.615262636661,35.5835955456979],[110.614767636317,35.5775565450985],[110.555664636614,35.457406545076],[110.547762636437,35.4372105454304],[110.537493635923,35.4244395455486],[110.42442663608,35.2919325458504],[110.416092636666,35.2844355454641],[110.397066636116,35.2699905457272],[110.371092636216,35.251666545175],[110.359977636259,35.2397145452901],[110.337486636,35.2008255451628],[110.333328636707,35.1897105452056],[110.31859563628,35.1380415456808],[110.298597636772,35.0599935455657],[110.274765636725,34.9828455455855],[110.261940636152,34.9391505450616],[110.236641636802,34.8066525457784],[110.235534636115,34.7927745452092],[110.235264636254,34.7263815456719],[110.235264636254,34.7130525452388],[110.243319636292,34.6566585454556],[110.281128636078,34.6233495454452],[110.286861636056,34.6196595452519],[110.294979636301,34.6149975452006],[110.30831763625,34.6116675454209],[110.526927636102,34.5808245458162],[110.534424636488,34.5799875458886],[110.652207636174,34.5985995453328],[110.658327636012,34.600273545188],[110.712201636496,34.6172115456764],[110.740263636458,34.6508265454088],[110.750001636766,34.6566585454556],[110.772222636266,34.658323545795],[110.846103636674,34.6538685453971],[110.869710636237,34.6538685453971],[110.883606636737,34.6561005458036],[110.902479636526,34.6683315450648],[110.914431636411,34.680274545434],[110.963049636432,34.7177595455667],[111.136110636597,34.8066525457784],[111.209991636105,34.8019365450356],[111.389433636453,34.8208275456548],[111.396381636703,34.8216645455823],[111.474429635919,34.8369375457312],[111.492753636471,34.8422205456417],[111.543045636347,34.8624885450104],[111.573321636784,34.8852765454762],[111.619707636398,34.9399875458886],[111.673599635915,35.0022225452343],[111.678315636657,35.0052735456377],[111.834150636543,35.0794335454219],[111.847218636631,35.0822145450653],[111.940809636755,35.0936085452982],[111.956937636763,35.091934545443],[112.135821636559,35.018881545447],[112.154163636143,35.0058315452897],[112.162767636317,34.9977765452514],[112.168869636225,34.9888845452856],[112.171101636631,34.9774815455369],[112.176375636127,34.9680495458499],[112.180263636458,34.9644405457946],[112.191657636691,34.9594365452604],[112.235811636798,34.9449915455235],[112.241364636569,34.9438845457353],[112.28831763625,34.9416525453287],[112.479711636483,34.8999915450738],[112.49609163642,34.8919365450355],[112.570827636686,34.859716545782],[112.623306636692,34.8380445455194],[112.666092636666,34.8227715453706],[112.774695636594,34.791109545769],[112.790544636326,34.7891655451538],[112.816662636571,34.7944485450644],[112.901928636797,34.8188835450396],[112.953327636461,34.8299895454812],[112.991928636797,34.8316635453364],[113.062002636113,34.8282705453494],[113.21429163615,34.8988035451475],[113.348121636604,34.9639545458656],[113.366607636533,34.9675455450909],[113.418762635987,35.0019165455122],[113.480070636651,34.9884435456332],[113.514171636312,34.9699215458427],[113.53803963622,34.9730445450697],[113.551089636378,34.9691565456381],[113.560809636755,34.9630545457308],[113.581932635982,34.9447125452478],[113.592210636012,34.9383315450648],[113.661654635953,34.9016565454133],[113.72498763647,34.8869325454007],[113.740260636619,34.8844395455486],[113.85470463611,34.869706545121],[113.867754636267,34.8722175458032],[113.944695636594,34.8872205451921],[113.957763636683,34.897489545706],[113.963316636454,34.9077765452514],[113.971641636353,34.9299885452352],[113.97942663653,34.9380435452734],[113.991090636624,34.9419405451201],[114.008325636419,34.9441545455958],[114.185256636085,34.9360995455576],[114.192744636056,34.9347225450095],[114.204165636635,34.9297185453746],[114.217485636653,34.91944954576],[114.228861636056,34.9144365457101],[114.292212636504,34.8994335454219],[114.322488636042,34.8944385453026],[114.329436636292,34.8952755452303],[114.366381636703,34.9124925450949],[114.40358763656,34.9222215458877],[114.418041636712,34.9233285456759],[114.426654636402,34.9224915457483],[114.459720635999,34.9127625458548],[114.521379636661,34.8988845452856],[114.649719636652,34.8924945455869],[114.712494636618,34.9041675451961],[114.722493636372,34.9097205458665],[114.839430636615,35.0172075455918],[114.848331636096,35.0319405451201],[114.8513826365,35.0441535453499],[114.864153636381,35.1330465455617],[115.009152636585,35.288323545795],[115.015542636284,35.2977735454128],[115.020267636542,35.3086005455788],[115.025271636177,35.3347185458243],[115.037196636616,35.3541675451961],[115.044432636657,35.3627715453705],[115.060812636594,35.3774865458674],[115.07638263605,35.3852715451458],[115.14054363608,35.4069345458926],[115.169433636453,35.4108225453243],[115.193859636013,35.4080415456808],[115.215819636067,35.4105435450486],[115.24136163673,35.4158265458585],[115.252206635928,35.4205425457019],[115.334151636789,35.4794295453373],[115.342755636064,35.4863775455873],[115.345266636746,35.4919395457734],[115.327212636054,35.5313775451377],[115.327212636054,35.5377765452514],[115.332765636725,35.5477755450054],[115.401651636114,35.6322135457186],[115.414989636063,35.6422215458877],[115.534149636297,35.7124935453409],[115.631925636059,35.731933545197],[115.656099636589,35.738881545447],[115.669707636398,35.7488805452011],[115.689696636391,35.7758265458585],[115.704438636334,35.8005495456251],[115.723599635915,35.8283235457951],[115.736370636696,35.8391505450617],[115.747485636653,35.8438845457352],[115.759986636674,35.8469355452393],[115.831932635982,35.8544325456255],[115.864989636063,35.8605435450486],[115.875807636713,35.8649985454466],[115.87997463642,35.8688775453625],[115.884150636543,35.880541545456],[115.857483636161,35.9010975455154],[115.855548635961,35.9124915457483],[115.866087636335,35.925829545697],[115.918593636687,35.9672115456763],[115.92832263658,35.9733225450994],[115.974150636543,35.9805495456251],[115.989972635928,35.9805495456251],[115.996641636802,35.9783265456336],[116.006100635936,35.9719275455199],[116.04480063634,35.9998095452743],[116.049138636739,36.0184125452029],[116.076921636424,36.1042545450113],[116.083860636259,36.1089795452698],[116.181366636161,36.159820545282],[116.190942636194,36.1638795454048],[116.206647636479,36.174832545086],[116.271384636092,36.235141545546],[116.283057636601,36.2482185451498],[116.304981636793,36.2815635450216],[116.313036635932,36.2898975453355],[116.33305263627,36.3007425454322],[116.370528635988,36.3115785451138],[116.413035636585,36.3151965455842],[116.460267636542,36.339109545769],[116.470824635948,36.3446625455401],[116.487492636576,36.3591255452078],[116.541924636713,36.4066275450252],[116.593602636652,36.4666575452096],[116.601378636415,36.5188845452856],[116.604150636543,36.5244375450567],[116.647764636029,36.5755575453445],[116.76749163633,36.6924945455868],[116.799990636759,36.708046545112],[116.858868635979,36.735829545697],[116.871090636624,36.7391505450616],[116.878308636734,36.7397175451287],[116.920815636433,36.7363785458332],[116.927763636683,36.7347225450095],[116.975301636361,36.7226895458859],[116.988306636242,36.7227615456089],[116.99442663608,36.725263545876],[117.096936636517,36.7877685450823],[117.10165263636,36.7919355456889],[117.12607863592,36.8299875458886],[117.173598636568,36.9099885452353],[117.225537635953,36.9991605457226],[117.339981636344,37.0558245453665],[117.357477636484,37.0616655458283],[117.408876636148,37.0808265454088],[117.42025263645,37.0855425452523],[117.549141636577,37.1472195458454],[117.563307636039,37.1561025453962],[117.57054363608,37.164994545362],[117.57609663675,37.1752725453917],[117.585816636229,37.2058275452051],[117.618594636034,37.2449865451929],[117.631365635915,37.2550035457771],[117.637503636584,37.2577755450055],[117.654162636796,37.2566595457016],[117.683592635991,37.2463815456719],[117.743046636593,37.2394335454218],[117.873024636578,37.255552545014],[117.879423636692,37.2566595457016],[117.891663636368,37.2605565455482],[117.902481636119,37.2666675458706],[117.924144635966,37.2836055454596],[117.969711636483,37.3088775453625],[118.07222163602,37.3491615450693],[118.096935636271,37.3555515456674],[118.15054863641,37.3569465452469],[118.163607636084,37.359439545099],[118.196637636718,37.3697085456129],[118.215276636508,37.3755495451754],[118.224429635919,37.3824885450104],[118.280544636326,37.4897145452901],[118.296375636127,37.5380445455194],[118.303863636098,37.5708315457393],[118.308723636287,37.5785985450868],[118.324995636639,37.5897225454592],[118.360806636018,37.6013865455527],[118.386384636542,37.6069485457389],[118.408596636526,37.6091625453153],[118.476924636263,37.6016655458283],[118.556925636509,37.621933545197],[118.618863636548,37.6647105456552],[118.684149636297,37.7277645458971],[118.821381636254,37.7769405455698],[118.855257636331,37.7916645455824],[118.891095636055,37.8191595454767],[118.913316636454,37.8291675456458],[118.925538636199,37.8250005450392],[118.95000063652,37.8083235457951],[118.971645636437,37.7977755450054],[118.985811636798,37.7947155450864],[119.002488636042,37.7936085452982],[119.01749163633,37.7955435454983],[119.043222636715,37.8096285457208]]]}},{"type":"Feature","properties":{"name":"长江","source_name":"Yangtze"},"geometry":{"type":"LineString","coordinates":[[90.5660706366506,34.268047545358],[91.2185796359415,34.3258185456894],[91.8202566365346,34.2422085453881],[91.999977636259,34.1291505450616],[92.165523636107,34.2394275457447],[92.601636636022,34.1997105452056],[92.6496966363907,34.1191425457919],[92.8219206366281,34.077481545537],[92.940243636035,34.0928895456161],[93.192738636379,34.2352605451381],[93.6583086367343,34.2105375453715],[93.8069166360939,34.2572115456763],[94.0521846368116,34.551376545791],[94.2547026365175,34.5747135454938],[94.5477426360139,34.7566575452096],[94.9216296360989,34.6807245455014],[95.0021976364118,34.5813735450531],[95.3066316361412,34.454986545193],[95.3333076360386,34.4844255457024],[95.4830406360166,34.3488765451165],[95.5635816359838,34.3274835451296],[95.5702506359581,34.2310935454308],[95.667459636553,34.2116535455747],[95.9246796362563,33.890542545702],[96.1780296364586,33.7630485451543],[96.2121936363273,33.7841535453499],[96.2605236365566,33.7208205457317],[96.3716286367522,33.7655415450063],[96.4005276366412,33.6841545455958],[96.6199656360054,33.5863695454182],[96.6966276360566,33.5472105454304],[96.7460826360049,33.3927615456089],[96.8524626359419,33.3202665452649],[97.0146876364253,33.315820545282],[97.0180356361358,33.2194305455832],[97.3844166363187,32.8438695456431],[97.3841376360431,32.7772065453458],[97.4644176365647,32.6722125454726],[98.2107966362558,32.3424795454947],[98.2169166360939,32.2455405456597],[98.4496926363062,31.9835955456979],[98.4466236359721,31.8980415456808],[98.4099756366663,31.8794385457524],[98.6227446360562,31.5708285459007],[98.877183636116,31.3544415451412],[98.7774636366376,31.2297105452055],[98.6444256367338,31.3110975455153],[98.606625636464,31.2274875452141],[98.7999726359284,30.9841545455959],[98.7774636366376,30.8944335458715],[98.9527566363098,30.7449885456849],[98.9058126361443,30.6791535457995],[99.0491376364928,29.9330445450698],[98.9838516367437,29.6755455450909],[99.0964056363111,29.2499715455505],[99.1160706366506,28.7161005458036],[99.1794126366839,28.5185955452483],[99.1555356363606,28.4316645455824],[99.3985176359802,28.1210565453234],[99.4588626363017,27.8508315457393],[99.438018636451,27.760273545188],[99.6483216363345,27.3233235453454],[99.9330276364163,27.0408315457393],[99.9658056362212,26.8827735458625],[100.059693636552,26.9494365452604],[100.057740636421,27.1666605450482],[100.235238636154,27.3344385453026],[100.18552263676,27.5102715455954],[100.296915636747,27.8252715451458],[100.401360636484,27.8430465455617],[100.433301636361,27.8011065450311],[100.442175636397,27.5105505458711],[100.539411636438,27.43748854546],[100.539690636714,27.219706545121],[100.434966636701,27.1897095458589],[100.488570636426,27.1388775453625],[100.453038636424,26.8186035454173],[100.389975636666,26.7877695453283],[100.449402636023,26.3610975455153],[100.407201636047,26.317222545684],[100.448295636235,26.2141545455959],[100.938858636217,26.1980445455194],[101.055795636459,26.3091585452307],[101.455251636654,26.4152595457915],[101.444118636766,26.5169415458157],[101.508324636173,26.5905435450486],[101.614146636458,26.5938825452433],[101.683581635984,26.5597185453746],[101.798889636647,26.6025585451408],[101.83997463642,26.5835955456979],[101.941908636375,26.3441505455113],[101.877027636416,26.181448545514],[101.828040636466,25.9930425454771],[101.864688636671,25.9711005453539],[102.066657636241,25.9885965454942],[102.107121636155,26.081602545621],[102.250806636018,26.2247205454169],[102.564681636748,26.3747145457397],[102.62386563659,26.3449875454389],[102.602463636188,26.2616655458284],[102.675795636459,26.2186005455787],[102.980526636395,26.3533305452685],[103.059402636023,26.5410975455154],[102.872193636327,27.0249915455234],[102.91469163651,27.1219395457734],[102.882462635942,27.2752725453917],[102.945507636668,27.4127745452091],[102.993855635929,27.3738855450819],[103.141050636678,27.420460545318],[103.178301636811,27.5252745458836],[103.49969163606,27.8347215456628],[103.56551763643,27.978046545112],[103.504965636455,27.9769395453238],[103.448301636811,28.1194365452604],[103.636086636089,28.2663795451799],[103.710534636564,28.2077625454052],[103.87523463607,28.3186065452559],[103.789959636328,28.5272175453535],[103.84774863659,28.6630455453157],[103.951635636675,28.6044375450567],[104.248581636433,28.6619385455275],[104.305803636629,28.6216545458207],[104.458587636111,28.6383225455491],[104.600256636535,28.7797215452132],[104.816940636601,28.8266655453787],[104.918298636073,28.777489545706],[104.984412636234,28.8363855457564],[105.019971636582,28.8216525453287],[105.011088636132,28.7583285452262],[105.101061636685,28.711933545197],[105.147753636022,28.7235975452905],[105.153027636416,28.7827725456165],[105.250263636458,28.746655545617],[105.350514636142,28.7905575457942],[105.36551763643,28.8530445450697],[105.440406636557,28.8975315452446],[105.552744636056,28.9055415450064],[105.553302636607,28.9599915450738],[105.589968636743,28.9680555455271],[105.62856963618,28.8847155450864],[105.766647636479,28.9230465455617],[105.832689636018,28.8136515450828],[105.90164763603,28.87748854546],[105.818586636764,28.9585965454942],[105.873288636761,29.0455455450909],[106.023858636667,29.1008235455702],[106.139976636013,29.0936055454596],[106.115514636591,29.1608175458931],[106.24802163629,29.2911015455999],[106.364409636396,29.2885995453328],[106.455804635975,29.3888775453625],[106.51997463642,29.4002625451803],[106.492191636735,29.469706545121],[106.58580063679,29.6108175458931],[106.683855635929,29.5686075455019],[106.750806636018,29.6147145457397],[106.835532636522,29.5844385453027],[107.075526635946,29.8205445452946],[107.165526635946,29.6902695451035],[107.304963635963,29.7427665450401],[107.396592636441,29.7243255453877],[107.48026563605,29.8324875456638],[107.45802663662,29.8805475451331],[107.49079563601,29.9005455455405],[107.612475636442,29.8444395455487],[107.718036636382,29.8769385450778],[107.849985636428,30.0086085457478],[107.942172636558,30.2074905450527],[108.072744636056,30.3274875452141],[108.0894216362,30.3599865456426],[108.224412636234,30.435829545697],[108.417732636252,30.7288785456084],[108.400803636179,30.820273545188],[108.624399636634,30.9466605450482],[108.986640636556,30.9369405455698],[109.608306636242,31.0222155453112],[109.654971636132,30.9985995453328],[109.949982636589,31.0683315450648],[110.243580636637,31.0197225454592],[110.544693636102,31.0291545451462],[111.136920636179,30.8430435457231],[111.426072636243,30.5063805454259],[111.445512636099,30.4152645452226],[111.515532636522,30.4088835450396],[111.50276163664,30.3097125456975],[111.551910635967,30.2683305457182],[111.614001636766,30.3107295458319],[111.659973636174,30.3841515457573],[111.854427636326,30.4238775458122],[112.013871636267,30.2824875456637],[112.214688636671,30.3030435457231],[112.273593636237,30.2361015451502],[112.18995663649,30.1230435457231],[112.206921636424,30.0772155457609],[112.331643635945,30.0647145457397],[112.423020636493,29.9502615458337],[112.371630636345,29.726656545863],[112.571907636129,29.8416675454209],[112.599699636229,29.7144255457024],[112.632459636103,29.7122205456417],[112.662186636404,29.8233165454223],[112.760529636234,29.7822225452343],[112.686630636794,29.7588855455315],[112.699131635916,29.7383295454722],[112.783380636008,29.7371955453382],[112.868853636786,29.7872175453535],[112.908570636426,29.7738885458198],[112.921629636099,29.6933295450226],[113.020242636688,29.7736005451291],[112.996284636227,29.6859315456044],[112.909407636353,29.640274545434],[112.904916636094,29.588047545358],[112.934688636671,29.4758175454434],[113.031645636437,29.5169385450778],[113.050797636502,29.4408165456471],[113.084385636788,29.4966885456399],[113.125821636559,29.4636675454209],[113.381286636269,29.7348735452779],[113.587863636098,29.8755705458441],[113.66440863615,29.9519355456889],[113.762193636327,29.9233245455914],[113.883765636275,30.0187335450171],[114.063855635929,30.086656545863],[114.068859636463,30.1183275458796],[113.961633636183,30.1949895450315],[113.864964636209,30.1830465455617],[113.853570635976,30.2133225450994],[113.906355636603,30.2827755454551],[113.958024636128,30.2891565456381],[114.030537636403,30.2252745458836],[114.066483636611,30.2536515450828],[114.099108636554,30.3384945455869],[114.194346636188,30.4479075450972],[114.268776636732,30.521212545023],[114.278838636694,30.5627655456934],[114.304155635974,30.5891625453153],[114.315990636759,30.608386545103],[114.369423636692,30.6519285457658],[114.401085636293,30.661828545451],[114.43867863601,30.669739545144],[114.488034636789,30.6713415452762],[114.502164636389,30.6701625457649],[114.517473636399,30.6642855454416],[114.537489636737,30.647788545505],[114.566937636763,30.5947965452244],[114.57753063603,30.5806665456246],[114.588114636681,30.5724225458638],[114.603432636207,30.5688945450473],[114.63758763656,30.5688945450473],[114.682326636665,30.5747715453706],[114.704727636371,30.5818455451359],[114.757719636652,30.6101055452348],[114.776565636095,30.6124635451565],[114.797742636014,30.6101055452348],[114.809523636107,30.6065685458018],[114.817785636698,30.5947965452244],[114.82246563668,30.5842035450576],[114.823653636606,30.5688945450473],[114.82246563668,30.5312025452613],[114.817785636698,30.5170725456615],[114.816588636357,30.4829265457236],[114.817785636698,30.4676175457132],[114.823653636606,30.4534785456984],[114.834246636773,30.4393575456143],[114.863694636798,30.4157955454281],[114.896661636325,30.4075515456673],[114.914337636673,30.404014545335],[114.952011636528,30.3981375450118],[114.963792636621,30.4028445453395],[114.989703636314,30.4063815456718],[115.006191636735,30.404014545335],[115.049751636429,30.3804705450796],[115.062711636033,30.3710565453234],[115.075653636606,30.3439665452199],[115.079190636039,30.3251295452923],[115.072125636689,30.3074535458445],[115.060344636596,30.2615265458135],[115.063998636028,30.2403315450648],[115.069938636559,30.2225205456867],[115.087749635937,30.2106495450405],[115.119411636438,30.2066805454709],[115.147122636401,30.2086605450482],[115.178775636487,30.2047005458935],[115.20251763598,30.1908585451858],[115.250019636697,30.1532565450536],[115.261890636444,30.1413855453067],[115.295532636522,30.0978435455432],[115.303443636215,30.0741015451503],[115.309383636745,30.0404505455563],[115.313334636384,30.0266085457478],[115.346985635978,29.9988975457852],[115.386558636172,29.9573445451147],[115.394469636764,29.941522545729],[115.402389635973,29.9098515457123],[115.412280636143,29.8920495458499],[115.426140636781,29.8742385455725],[115.451853636336,29.8603785458333],[115.471644636191,29.8524675452411],[115.507275636262,29.8445565455482],[115.538937636763,29.8425765450716],[115.584441636173,29.8445565455482],[115.618092636666,29.8524675452411],[115.655685636383,29.8544475457177],[115.685367636407,29.8445565455482],[115.713060636439,29.8267455452707],[115.752642636149,29.7911145452002],[115.782333636588,29.7752925458144],[115.873359636238,29.7357195456206],[115.903032636747,29.7317505451516],[115.952514636142,29.7357195456206],[115.988127636281,29.7436305453135],[116.024316636004,29.7567615456089],[116.043963636413,29.7682275455649],[116.063628636752,29.7772275451152],[116.113551636699,29.7862365450806],[116.148750636633,29.7903315450648],[116.188854636133,29.7903315450648],[116.260485636203,29.7896655458283],[116.268288636312,29.7927885450554],[116.279223636062,29.8006005455788],[116.301111636393,29.8177905450976],[116.330793636417,29.8459065457506],[116.343294636438,29.8537275457896],[116.383920636628,29.8630965452694],[116.472984636632,29.8724745451642],[116.501118636316,29.886532545041],[116.524554636088,29.8990335450621],[116.533914636052,29.9099685457119],[116.544867636632,29.9318565451435],[116.55110463647,29.9552925458144],[116.560482636365,29.9755965450446],[116.58079563601,29.9974845453755],[116.602674635926,30.013108545523],[116.641734636744,30.0318555457969],[116.6933046362,30.0459225451893],[116.736657636241,30.0598095452743],[116.760840636286,30.0742905457721],[116.7891096368,30.0966645451327],[116.831499636499,30.1414215451682],[116.852694636348,30.1720395451889],[116.897442635969,30.2450475458077],[116.912751635979,30.2827305451786],[116.911590636399,30.3145275456098],[116.903337636223,30.3427875457087],[116.900970636785,30.3616245456363],[116.903337636223,30.3781215455729],[116.911590636399,30.404014545335],[116.920986636224,30.4228605456777],[116.972808636509,30.4687965452244],[117.010500636295,30.4911705454844],[117.029274636016,30.4959585450509],[117.041064636524,30.4970835456692],[117.088323635927,30.4963185454645],[117.159198636208,30.5003595456566],[117.182319636742,30.5057325452208],[117.203991636105,30.5151105451156],[117.211776636283,30.5237685450824],[117.226392636711,30.5464035456872],[117.230298636073,30.5658975453355],[117.229326636215,30.5902695451035],[117.227373636085,30.6029505453315],[117.221505636176,30.6185475451331],[117.220551636249,30.6331725450769],[117.225420635954,30.6458535453049],[117.234186636404,30.6536565454133],[117.249783636206,30.6604785452487],[117.28780863606,30.6770475458076],[117.313170636516,30.6868035451475],[117.411657636691,30.7053255458373],[117.455532636522,30.7170255457924],[117.667122636401,30.7881975453805],[117.687570635976,30.7979535456197],[117.709737636583,30.8125065458404],[117.718296636481,30.838201545465],[117.735423636692,30.9524115458562],[117.738285636473,30.9952335456916],[117.735423636692,31.0352115456764],[117.7554216362,31.0923165458719],[117.772548636411,31.1180115454965],[117.806811636348,31.1322855454416],[117.835350636723,31.1322855454416],[117.861063636278,31.1180115454965],[117.875337636223,31.0980315450199],[117.886758636802,31.0866015458247],[117.90960063616,31.0780335455117],[117.935286636269,31.0808865457775],[117.960990636309,31.0894545451911],[117.97811763652,31.1065905458171],[117.980970636786,31.1294235456601],[117.980970636786,31.1722545450113],[118.000959636778,31.1950965452694],[118.018086636089,31.2065175458481],[118.140864636794,31.2664845458252],[118.189401636676,31.2864645454025],[118.306464636434,31.2978855450819],[118.323591636645,31.3093065456606],[118.329306636692,31.3264335458715],[118.326453636426,31.360696545809],[118.320738636379,31.4006745457937],[118.317894636528,31.4463585454106],[118.323591636645,31.4692005456687],[118.337874636106,31.5006105453405],[118.377843636575,31.5834105451606],[118.403547636614,31.6176645455824],[118.414959636778,31.6433595452069],[118.423527636191,31.6776315455594],[118.423527636191,31.7033175456683],[118.432086636089,31.7290215457078],[118.472496636211,31.8041985456264],[118.511493635923,31.8705105450257],[118.618764636479,31.9835955456979],[118.644099636589,32.0138355453741],[118.689927636551,32.0742795457645],[118.718196636166,32.1054825457829],[118.759155636424,32.1454605457676],[118.78451763598,32.1581415450963],[118.811805636221,32.1669075455468],[118.836177635989,32.1717945451821],[118.862520636718,32.1678795454047],[118.899564636299,32.1659355456889],[118.916133635959,32.1688605456777],[119.009751636429,32.201035545554],[119.063094636708,32.2343895458409],[119.088780635918,32.240086545058],[119.157306636692,32.2315275451601],[119.362884636317,32.21854054521],[119.387103636224,32.2293135455837],[119.403924636713,32.2313295450226],[119.491359636238,32.2315275451601],[119.55903963667,32.2180365453503],[119.567193636777,32.2126905452325],[119.569209636216,32.2097115454515],[119.613110587783,32.1906500009968]]}}]}
