{
  "type": "FeatureCollection",
  "features": [
    {
      "type": "Feature",
      "id": 328,
      "geometry": {
        "type": "LineString",
        "coordinates": [
          [
            103.753018184,
            1.39435451500004
          ],
          [
            103.752824215,
            1.39433601400002
          ],
          [
            103.752428112,
            1.39427846300003
          ],
          [
            103.752499591,
            1.39380994300006
          ],
          [
            103.752583322,
            1.39325922700003
          ],
          [
            103.752636421,
            1.39287906800007
          ],
          [
            103.752705857,
            1.39242904200005
          ],
          [
            103.752765082,
            1.39202833500002
          ],
          [
            103.752838603,
            1.39153926600005
          ],
          [
            103.752905996,
            1.39109335000005
          ],
          [
            103.752952969,
            1.39074401500005
          ],
          [
            103.752981563,
            1.39047687600004
          ],
          [
            103.753038754,
            1.38985423700006
          ],
          [
            103.753083574,
            1.38935199200006
          ],
          [
            103.753155912,
            1.38866671500005
          ],
          [
            103.753253164,
            1.38831038200005
          ],
          [
            103.753317998,
            1.38811214100002
          ],
          [
            103.753395298,
            1.38794903200005
          ],
          [
            103.754155064,
            1.38649901100008
          ],
          [
            103.755401248,
            1.38438591100003
          ],
          [
            103.756057064,
            1.38351389200005
          ],
          [
            103.75692843,
            1.38243916600002
          ],
          [
            103.757858691,
            1.38129179900005
          ],
          [
            103.758033346,
            1.38109493500002
          ],
          [
            103.758146707,
            1.38097356300004
          ],
          [
            103.758215242,
            1.38090459100004
          ],
          [
            103.758262373,
            1.38087596200005
          ],
          [
            103.758504017,
            1.38076093900002
          ],
          [
            103.758660983,
            1.38070642300004
          ],
          [
            103.758755284,
            1.38068115600002
          ],
          [
            103.758907669,
            1.38063225100006
          ],
          [
            103.758989792,
            1.38060269400005
          ],
          [
            103.759060912,
            1.38055714800003
          ],
          [
            103.759151429,
            1.38045564200007
          ],
          [
            103.759225454,
            1.38034507900005
          ],
          [
            103.759404478,
            1.38000597000007
          ],
          [
            103.759662797,
            1.37948779600004
          ],
          [
            103.759802693,
            1.37919259800003
          ],
          [
            103.760000785,
            1.37928546500006
          ]
        ]
      },
      "properties": {
        "OBJECTID": 328,
        "pcn_loop": "Rail Corridor",
        "pcn": "Rail Corridor",
        "descriptionHTML": null,
        "address": null,
        "Shape__Length": 2035.1201294046512
      }
    },
    {
      "type": "Feature",
      "id": 329,
      "geometry": {
        "type": "LineString",
        "coordinates": [
          [
            103.767706295,
            1.35766287600006
          ],
          [
            103.768208673,
            1.35705644600005
          ],
          [
            103.768677434,
            1.35650659500003
          ],
          [
            103.769009534,
            1.35599596600001
          ],
          [
            103.769283054,
            1.35552460000002
          ],
          [
            103.769615258,
            1.35480768700006
          ],
          [
            103.77007455,
            1.35367827000004
          ],
          [
            103.770465472,
            1.35264704800004
          ],
          [
            103.770797718,
            1.35184172700001
          ],
          [
            103.771090807,
            1.35127213900005
          ],
          [
            103.771413145,
            1.35076150400004
          ],
          [
            103.771657314,
            1.35042764300004
          ],
          [
            103.771911272,
            1.35003485000003
          ],
          [
            103.772868357,
            1.34883692200004
          ],
          [
            103.775026698,
            1.34609737900008
          ],
          [
            103.775778706,
            1.34512527500005
          ],
          [
            103.776462349,
            1.34424154300006
          ],
          [
            103.777204582,
            1.34329890100002
          ],
          [
            103.778000892,
            1.34229421500003
          ]
        ]
      },
      "properties": {
        "OBJECTID": 329,
        "pcn_loop": "Rail Corridor",
        "pcn": "Rail Corridor",
        "descriptionHTML": null,
        "address": null,
        "Shape__Length": 2073.4234252895453
      }
    },
    {
      "type": "Feature",
      "id": 330,
      "geometry": {
        "type": "LineString",
        "coordinates": [
          [
            103.832304723,
            1.27300065900004
          ],
          [
            103.832023383,
            1.27315616800007
          ],
          [
            103.831871231,
            1.27324709400005
          ],
          [
            103.831643002,
            1.27341459100006
          ],
          [
            103.831153261,
            1.27383093800007
          ],
          [
            103.830235591,
            1.27456792000004
          ],
          [
            103.829617472,
            1.27507998000004
          ],
          [
            103.829222825,
            1.27537190100002
          ],
          [
            103.828528628,
            1.27593181600002
          ],
          [
            103.827358954,
            1.27688893500005
          ],
          [
            103.826551984,
            1.27754557800006
          ],
          [
            103.825823161,
            1.27812840300004
          ],
          [
            103.825661498,
            1.27826718600005
          ],
          [
            103.825419004,
            1.27850646600006
          ],
          [
            103.824921715,
            1.27891149500003
          ],
          [
            103.824672503,
            1.27908552200004
          ],
          [
            103.824525105,
            1.27916687600003
          ],
          [
            103.824130458,
            1.27933437100005
          ],
          [
            103.823868946,
            1.27943486800006
          ],
          [
            103.823531357,
            1.27952100700003
          ],
          [
            103.823241315,
            1.27956886200007
          ],
          [
            103.823032105,
            1.27957843300003
          ],
          [
            103.822613685,
            1.27960235900002
          ],
          [
            103.822214284,
            1.27956407200003
          ],
          [
            103.821467786,
            1.27944442900002
          ],
          [
            103.821149216,
            1.27942528500005
          ],
          [
            103.820840156,
            1.27940135500006
          ],
          [
            103.820569134,
            1.27939656900002
          ],
          [
            103.820331395,
            1.27943963800004
          ],
          [
            103.819970032,
            1.27954970500002
          ],
          [
            103.819624122,
            1.27967771800006
          ],
          [
            103.819490052,
            1.27976192000005
          ],
          [
            103.819243739,
            1.27990742500003
          ],
          [
            103.818937055,
            1.28009167000004
          ],
          [
            103.818822939,
            1.28017063100003
          ],
          [
            103.818385499,
            1.28043862200001
          ],
          [
            103.817646129,
            1.28089803600006
          ],
          [
            103.817256236,
            1.28114927800003
          ],
          [
            103.816464562,
            1.28163022700005
          ],
          [
            103.815479494,
            1.28224130600006
          ],
          [
            103.814983093,
            1.28254949500007
          ],
          [
            103.814621728,
            1.28276580200002
          ],
          [
            103.814243247,
            1.28297062400003
          ],
          [
            103.813971272,
            1.28309887600004
          ],
          [
            103.813784884,
            1.28318118700003
          ],
          [
            103.813341738,
            1.28336495100005
          ],
          [
            103.812972766,
            1.28350277300008
          ],
          [
            103.812763555,
            1.28356594100006
          ],
          [
            103.812677969,
            1.28358699800004
          ],
          [
            103.812529619,
            1.28361571000005
          ],
          [
            103.812299487,
            1.28366739300003
          ],
          [
            103.812229116,
            1.28368079200005
          ],
          [
            103.811993279,
            1.28371333200005
          ],
          [
            103.811698482,
            1.28376118600005
          ],
          [
            103.811449331,
            1.28378989700001
          ],
          [
            103.810597275,
            1.28386071700003
          ],
          [
            103.810060935,
            1.28389708300005
          ],
          [
            103.809743315,
            1.28391622200008
          ],
          [
            103.809146115,
            1.28395641500002
          ],
          [
            103.808712547,
            1.28398442800004
          ],
          [
            103.80867444,
            1.28398703900005
          ],
          [
            103.808663029,
            1.28399469600003
          ],
          [
            103.808655421,
            1.28401766600007
          ],
          [
            103.808642107,
            1.28409232200005
          ],
          [
            103.808621186,
            1.28410955000004
          ],
          [
            103.808254116,
            1.28413443100004
          ],
          [
            103.808244607,
            1.28411911700004
          ],
          [
            103.808238903,
            1.28400617700004
          ],
          [
            103.808109572,
            1.28401574700007
          ],
          [
            103.807791953,
            1.28403105700004
          ],
          [
            103.807061618,
            1.28408082000003
          ],
          [
            103.8056523,
            1.28417268900005
          ],
          [
            103.805161606,
            1.28420714000004
          ],
          [
            103.804425566,
            1.28425307300005
          ],
          [
            103.803295829,
            1.28432771500006
          ],
          [
            103.802706236,
            1.28436025100006
          ],
          [
            103.802327756,
            1.28438704600006
          ],
          [
            103.802063389,
            1.28440044200005
          ],
          [
            103.801555578,
            1.28443680700003
          ],
          [
            103.801323545,
            1.28445594600004
          ],
          [
            103.801203724,
            1.28448657200005
          ],
          [
            103.800907024,
            1.28455739600001
          ],
          [
            103.800804321,
            1.28459567900007
          ],
          [
            103.800640756,
            1.28466076100006
          ],
          [
            103.800475288,
            1.28475455700004
          ],
          [
            103.800307918,
            1.28486366600004
          ],
          [
            103.800216626,
            1.28492492100003
          ],
          [
            103.800073981,
            1.28503977400004
          ],
          [
            103.7998952,
            1.28520439700003
          ],
          [
            103.799714515,
            1.28539007600007
          ],
          [
            103.799503398,
            1.28568869400003
          ],
          [
            103.799438733,
            1.28579780600005
          ],
          [
            103.799332222,
            1.28603708500003
          ],
          [
            103.799240927,
            1.28627636300007
          ],
          [
            103.799191475,
            1.28644290200001
          ],
          [
            103.799161043,
            1.28657115600005
          ],
          [
            103.799138218,
            1.28669749600002
          ],
          [
            103.799128707,
            1.28678937900002
          ],
          [
            103.799111587,
            1.28697506000003
          ],
          [
            103.799103977,
            1.28718562700004
          ],
          [
            103.799092559,
            1.28765461600005
          ],
          [
            103.799090652,
            1.28804512100003
          ],
          [
            103.799060212,
            1.28872084900005
          ],
          [
            103.799037382,
            1.28931617800002
          ],
          [
            103.799022161,
            1.28974114000004
          ],
          [
            103.799008843,
            1.29008570300004
          ],
          [
            103.799014547,
            1.29015844400004
          ],
          [
            103.799014545,
            1.29032115500006
          ],
          [
            103.799010738,
            1.29056809300005
          ],
          [
            103.799001225,
            1.29080162900003
          ],
          [
            103.798980302,
            1.29098348200005
          ],
          [
            103.79897079,
            1.29107919500006
          ],
          [
            103.798978398,
            1.29113662200007
          ],
          [
            103.798986002,
            1.29140844400006
          ],
          [
            103.798947958,
            1.29175492200004
          ],
          [
            103.798917522,
            1.29222965300004
          ],
          [
            103.798915614,
            1.29264887200003
          ],
          [
            103.798927022,
            1.29289389600006
          ],
          [
            103.798932726,
            1.29308149100008
          ],
          [
            103.798922752,
            1.29346833600005
          ],
          [
            103.798904186,
            1.29384527400002
          ],
          [
            103.79886234,
            1.29411901000003
          ],
          [
            103.798818207,
            1.29425032600004
          ],
          [
            103.798799574,
            1.29432957600004
          ],
          [
            103.798706376,
            1.29465308100004
          ],
          [
            103.798569434,
            1.29491724500001
          ],
          [
            103.798457218,
            1.29507229700004
          ],
          [
            103.798383042,
            1.29518140700003
          ],
          [
            103.79830316,
            1.29528669000006
          ],
          [
            103.798187141,
            1.29542260000005
          ],
          [
            103.79779534,
            1.29583607000005
          ],
          [
            103.797195357,
            1.29651329800003
          ],
          [
            103.796815834,
            1.29696928800006
          ],
          [
            103.796540051,
            1.29731001900006
          ],
          [
            103.796399305,
            1.29751867000005
          ],
          [
            103.796309913,
            1.29766415100005
          ],
          [
            103.796174873,
            1.29790151500004
          ],
          [
            103.796081676,
            1.29810059500006
          ],
          [
            103.795921909,
            1.29849875400003
          ],
          [
            103.795862947,
            1.29868252100003
          ],
          [
            103.795741218,
            1.29908068100002
          ],
          [
            103.79564041,
            1.29948075600002
          ],
          [
            103.795486345,
            1.30006459800006
          ],
          [
            103.795406461,
            1.30031727600004
          ],
          [
            103.795273321,
            1.30064269600006
          ],
          [
            103.795239085,
            1.30072500700004
          ],
          [
            103.795182025,
            1.30089537400005
          ],
          [
            103.795151593,
            1.30096237300005
          ],
          [
            103.795058396,
            1.30114805300002
          ],
          [
            103.794963297,
            1.30132607600006
          ],
          [
            103.794905574,
            1.30139873500001
          ],
          [
            103.794845456,
            1.30148949200002
          ],
          [
            103.794780111,
            1.30158419600001
          ],
          [
            103.794706925,
            1.30167100700004
          ],
          [
            103.794648113,
            1.30176439500002
          ],
          [
            103.794589302,
            1.30186699200003
          ],
          [
            103.794554016,
            1.30190776700005
          ],
          [
            103.794486057,
            1.30199852400004
          ],
          [
            103.79442986,
            1.30208402100005
          ],
          [
            103.794110973,
            1.30265092800004
          ],
          [
            103.794075686,
            1.30273116300002
          ],
          [
            103.794015567,
            1.30286401200005
          ],
          [
            103.793934539,
            1.30301001400004
          ],
          [
            103.793865272,
            1.30313628500006
          ],
          [
            103.793704521,
            1.30342302700007
          ],
          [
            103.793479732,
            1.30384261800003
          ],
          [
            103.793335971,
            1.30411357600003
          ],
          [
            103.793051062,
            1.30464102400003
          ],
          [
            103.792771382,
            1.30515926300007
          ],
          [
            103.792622394,
            1.30542496000003
          ],
          [
            103.792456414,
            1.30574195500003
          ],
          [
            103.792240773,
            1.30613392300006
          ],
          [
            103.79205519,
            1.30647854000006
          ],
          [
            103.792009447,
            1.30658245000006
          ],
          [
            103.791965012,
            1.30668636200004
          ],
          [
            103.791861764,
            1.30694942900004
          ],
          [
            103.791770277,
            1.30724274800002
          ],
          [
            103.791744139,
            1.30733876800001
          ],
          [
            103.791694474,
            1.30754264500006
          ],
          [
            103.791591224,
            1.30787674000003
          ],
          [
            103.791549402,
            1.30798722800006
          ],
          [
            103.791512808,
            1.30809245500007
          ],
          [
            103.791401717,
            1.30845680300007
          ],
          [
            103.791207516,
            1.30908201100003
          ],
          [
            103.790970422,
            1.30991814000004
          ],
          [
            103.790842339,
            1.31040481400004
          ],
          [
            103.790765229,
            1.31063236700004
          ],
          [
            103.790728634,
            1.31078231600001
          ],
          [
            103.790671125,
            1.31111378000003
          ],
          [
            103.79063061,
            1.31126767500008
          ],
          [
            103.790566568,
            1.31146365900002
          ],
          [
            103.79051037,
            1.31160966200002
          ],
          [
            103.790441102,
            1.31178591600006
          ],
          [
            103.790352232,
            1.31197137700002
          ],
          [
            103.790259439,
            1.31215026300004
          ],
          [
            103.790186252,
            1.31226864200004
          ],
          [
            103.790111757,
            1.31240280600002
          ],
          [
            103.790009818,
            1.31255406800005
          ],
          [
            103.789902651,
            1.31270006900008
          ],
          [
            103.789697465,
            1.31295129600005
          ],
          [
            103.789607289,
            1.31304336800003
          ],
          [
            103.789385116,
            1.31321699000004
          ],
          [
            103.789226981,
            1.31332616000001
          ],
          [
            103.789074073,
            1.31345900600006
          ],
          [
            103.7889277,
            1.31356686200007
          ],
          [
            103.788517333,
            1.31385228400006
          ],
          [
            103.788381416,
            1.31393383200001
          ],
          [
            103.788258567,
            1.31399959700003
          ],
          [
            103.787940991,
            1.31417847800002
          ],
          [
            103.787856043,
            1.31422845900004
          ],
          [
            103.787810301,
            1.31426397300003
          ],
          [
            103.787679611,
            1.31439813600003
          ],
          [
            103.787547613,
            1.31451519900001
          ],
          [
            103.787227618,
            1.31483013100006
          ],
          [
            103.787017008,
            1.31506500200003
          ],
          [
            103.78680006,
            1.31534121900005
          ],
          [
            103.786470717,
            1.31575423000004
          ],
          [
            103.786278601,
            1.31597783400001
          ],
          [
            103.78620672,
            1.31607911400005
          ],
          [
            103.786086483,
            1.31625536800003
          ],
          [
            103.785849931,
            1.31657499100004
          ],
          [
            103.785661735,
            1.31678281200004
          ],
          [
            103.78556241,
            1.31689329900005
          ],
          [
            103.78530276,
            1.31724411900006
          ],
          [
            103.7852457,
            1.31734820500002
          ],
          [
            103.785186016,
            1.31746151900006
          ],
          [
            103.7849711,
            1.31779326100001
          ],
          [
            103.784739046,
            1.31821651600006
          ],
          [
            103.784567218,
            1.31856456400003
          ],
          [
            103.784379097,
            1.31906741600005
          ],
          [
            103.784293504,
            1.31937249600001
          ],
          [
            103.784229309,
            1.31960579300005
          ],
          [
            103.784133018,
            1.31988933800005
          ],
          [
            103.784033161,
            1.32015852700004
          ],
          [
            103.78390834,
            1.32046001800005
          ],
          [
            103.783769255,
            1.32072561600006
          ],
          [
            103.783640871,
            1.32091225100004
          ],
          [
            103.783394801,
            1.32125322100007
          ],
          [
            103.783255717,
            1.32142908900005
          ],
          [
            103.783123767,
            1.32161213600005
          ],
          [
            103.782945456,
            1.32179877000003
          ],
          [
            103.782471151,
            1.32227612500002
          ],
          [
            103.782282141,
            1.32248070500004
          ],
          [
            103.782125227,
            1.32267810800005
          ],
          [
            103.781971877,
            1.32294370600004
          ],
          [
            103.781829225,
            1.32326314300002
          ],
          [
            103.7817258,
            1.32362206000005
          ],
          [
            103.781672304,
            1.32382664400007
          ],
          [
            103.781640204,
            1.32400969200004
          ],
          [
            103.781622369,
            1.32420709800004
          ],
          [
            103.781611666,
            1.32445834200007
          ],
          [
            103.781562314,
            1.32544118400006
          ],
          [
            103.781550332,
            1.32582582400005
          ],
          [
            103.781520626,
            1.32646083600001
          ],
          [
            103.781486198,
            1.32729321100005
          ],
          [
            103.781457653,
            1.32802540800004
          ],
          [
            103.781433874,
            1.32826229500006
          ],
          [
            103.78141247,
            1.32859728700003
          ],
          [
            103.781362536,
            1.32898252700005
          ],
          [
            103.781333997,
            1.32943237300003
          ],
          [
            103.781329239,
            1.32963097600003
          ],
          [
            103.781343499,
            1.32983197100004
          ],
          [
            103.781343493,
            1.33011910800001
          ],
          [
            103.781322085,
            1.33065509500005
          ],
          [
            103.781279276,
            1.33138729100006
          ],
          [
            103.781224586,
            1.33178688800006
          ],
          [
            103.781219829,
            1.33190892100003
          ],
          [
            103.781234087,
            1.33222716400007
          ],
          [
            103.78122695,
            1.33245687200003
          ],
          [
            103.781185564,
            1.33333263700007
          ],
          [
            103.781147033,
            1.33409498200007
          ],
          [
            103.781112573,
            1.33593468500004
          ],
          [
            103.781075866,
            1.33679057500006
          ],
          [
            103.781052217,
            1.33727432900003
          ],
          [
            103.781020692,
            1.33764309200007
          ],
          [
            103.780997049,
            1.33783342000004
          ],
          [
            103.780961588,
            1.33800392300003
          ],
          [
            103.780914307,
            1.33817442500004
          ],
          [
            103.780835508,
            1.33840440500006
          ],
          [
            103.780752769,
            1.33861059400005
          ],
          [
            103.780654271,
            1.33880488600004
          ],
          [
            103.780473037,
            1.33909434100003
          ],
          [
            103.780146029,
            1.33953843600004
          ],
          [
            103.779692946,
            1.34010941500004
          ],
          [
            103.778601606,
            1.34150513900004
          ],
          [
            103.778000892,
            1.34229421500003
          ]
        ]
      },
      "properties": {
        "OBJECTID": 330,
        "pcn_loop": "Rail Corridor",
        "pcn": "Rail Corridor",
        "descriptionHTML": null,
        "address": null,
        "Shape__Length": 11113.534796198217
      }
    },
    {
      "type": "Feature",
      "id": 331,
      "geometry": {
        "type": "MultiLineString",
        "coordinates": [
          [
            [
              103.767706295,
              1.35766287600006
            ],
            [
              103.767652619,
              1.35772648000005
            ],
            [
              103.767183771,
              1.35829349000004
            ],
            [
              103.766941615,
              1.35860605300006
            ],
            [
              103.766793399,
              1.35885344500003
            ],
            [
              103.766670486,
              1.35912630500008
            ],
            [
              103.766562034,
              1.35936642100007
            ],
            [
              103.766500577,
              1.35953013800002
            ],
            [
              103.766439113,
              1.35975266100006
            ],
            [
              103.766370428,
              1.36004311700003
            ],
            [
              103.766294606,
              1.36042230900005
            ],
            [
              103.766287272,
              1.36054882100005
            ],
            [
              103.766294494,
              1.36084715100002
            ],
            [
              103.76632482,
              1.36119202300005
            ],
            [
              103.766364209,
              1.36151717000007
            ],
            [
              103.766402459,
              1.36181355300005
            ],
            [
              103.76651989,
              1.36251270200005
            ],
            [
              103.766621722,
              1.36324948900006
            ],
            [
              103.766639546,
              1.36350791100005
            ],
            [
              103.766643101,
              1.36392066900004
            ],
            [
              103.766607425,
              1.36440162100007
            ],
            [
              103.766557489,
              1.36477489700007
            ],
            [
              103.766521821,
              1.36497230200006
            ],
            [
              103.766364753,
              1.36546580100002
            ],
            [
              103.766303669,
              1.36561803100004
            ],
            [
              103.766225055,
              1.36581814300006
            ],
            [
              103.766120234,
              1.36605147700004
            ],
            [
              103.765979004,
              1.36632425100004
            ],
            [
              103.765856321,
              1.36653098600003
            ],
            [
              103.765519182,
              1.36703609600004
            ],
            [
              103.765317565,
              1.36732131200006
            ],
            [
              103.764509981,
              1.36849291300006
            ],
            [
              103.764026299,
              1.36916592700005
            ],
            [
              103.763750811,
              1.36956169200005
            ],
            [
              103.763630941,
              1.36976698300001
            ],
            [
              103.763447982,
              1.37006751200005
            ],
            [
              103.763283948,
              1.37036169200008
            ],
            [
              103.763157769,
              1.37060931200006
            ],
            [
              103.763040954,
              1.37089309600003
            ],
            [
              103.762918257,
              1.37124367700005
            ],
            [
              103.762838009,
              1.37150090100004
            ],
            [
              103.762717951,
              1.37195304400006
            ],
            [
              103.762454593,
              1.37317315800005
            ],
            [
              103.762296471,
              1.37391402100008
            ],
            [
              103.762178999,
              1.37446188800004
            ],
            [
              103.762122524,
              1.37467103200003
            ],
            [
              103.762000538,
              1.37508477300003
            ],
            [
              103.761827361,
              1.37557703900007
            ],
            [
              103.761748747,
              1.37579111100007
            ],
            [
              103.761596145,
              1.37610291100003
            ],
            [
              103.761219954,
              1.37685141700008
            ],
            [
              103.760000785,
              1.37928546600005
            ]
          ],
          [
            [
              103.753016649,
              1.39435427700003
            ],
            [
              103.75293124,
              1.39491198500002
            ],
            [
              103.75283707,
              1.39550922400002
            ],
            [
              103.75267156,
              1.39659937800007
            ],
            [
              103.752597366,
              1.39708080700006
            ],
            [
              103.752547359,
              1.39743450800005
            ],
            [
              103.752477512,
              1.39790201100003
            ],
            [
              103.752458563,
              1.39808764800006
            ],
            [
              103.752440185,
              1.39840189500006
            ],
            [
              103.752430615,
              1.39865028000002
            ],
            [
              103.752436585,
              1.39888018600005
            ],
            [
              103.752458445,
              1.39925346400002
            ],
            [
              103.752475353,
              1.39942782400005
            ],
            [
              103.752513608,
              1.39971280500004
            ],
            [
              103.752548804,
              1.39994233100002
            ],
            [
              103.752571757,
              1.40010869900004
            ],
            [
              103.75261057,
              1.40031012900005
            ],
            [
              103.752661916,
              1.40051782600005
            ],
            [
              103.752732446,
              1.40076184700007
            ],
            [
              103.752888548,
              1.40126557400004
            ],
            [
              103.753101277,
              1.40190794100004
            ],
            [
              103.753427257,
              1.40292771900004
            ],
            [
              103.753770665,
              1.40398837900004
            ],
            [
              103.753878118,
              1.40430136100002
            ],
            [
              103.754150077,
              1.40511396500006
            ],
            [
              103.754252775,
              1.40541450400002
            ],
            [
              103.754388754,
              1.40583468400006
            ],
            [
              103.754530098,
              1.40627127000004
            ],
            [
              103.75479574,
              1.40710192400007
            ],
            [
              103.754888997,
              1.40738406700006
            ],
            [
              103.754908722,
              1.40744457900008
            ],
            [
              103.754992429,
              1.40770137200002
            ],
            [
              103.754796283,
              1.40776238100006
            ],
            [
              103.754956747,
              1.40831512400007
            ],
            [
              103.755099378,
              1.40887504300004
            ],
            [
              103.755163557,
              1.40930216000003
            ],
            [
              103.755184943,
              1.40963954500007
            ],
            [
              103.755198245,
              1.41001820600006
            ],
            [
              103.755202035,
              1.41043168200003
            ],
            [
              103.75540455,
              1.41042978300003
            ],
            [
              103.755393389,
              1.41068436900002
            ],
            [
              103.755387254,
              1.41075567700006
            ],
            [
              103.755357951,
              1.41101759700006
            ],
            [
              103.755306845,
              1.41134808100003
            ],
            [
              103.755284358,
              1.41145572800001
            ],
            [
              103.755255739,
              1.41163536900007
            ],
            [
              103.755142626,
              1.41228125300006
            ],
            [
              103.755129678,
              1.41237518700007
            ],
            [
              103.754951301,
              1.41333412500006
            ],
            [
              103.754899936,
              1.41362843800003
            ],
            [
              103.754787602,
              1.41425327800004
            ],
            [
              103.754583349,
              1.41536940700006
            ],
            [
              103.754398952,
              1.41639133600006
            ],
            [
              103.754272154,
              1.41711480000003
            ],
            [
              103.754247423,
              1.41726219600002
            ],
            [
              103.754158554,
              1.41794057200002
            ],
            [
              103.754170461,
              1.41803946800007
            ],
            [
              103.754186835,
              1.41810839600004
            ],
            [
              103.75421661,
              1.41818931100006
            ],
            [
              103.754258295,
              1.41826423300005
            ],
            [
              103.754334222,
              1.41839909300006
            ],
            [
              103.754386326,
              1.41853844800005
            ],
            [
              103.754415862,
              1.41865259800006
            ],
            [
              103.754438428,
              1.41878718600001
            ],
            [
              103.754454798,
              1.41901644400002
            ],
            [
              103.754472659,
              1.41914680700006
            ],
            [
              103.754505407,
              1.41933411000003
            ],
            [
              103.754532202,
              1.41946747000002
            ],
            [
              103.754544105,
              1.41968773700006
            ],
            [
              103.75457548,
              1.41985688200002
            ],
            [
              103.754588763,
              1.41991849400005
            ],
            [
              103.754952883,
              1.42069138300006
            ],
            [
              103.755057783,
              1.42089023600004
            ],
            [
              103.755184677,
              1.42111910400006
            ],
            [
              103.755392699,
              1.42147204900004
            ],
            [
              103.755636379,
              1.42191472500002
            ],
            [
              103.755847372,
              1.42229458900005
            ],
            [
              103.756070251,
              1.42271034500002
            ],
            [
              103.75620742,
              1.42295625200006
            ],
            [
              103.756260953,
              1.42303121600002
            ],
            [
              103.756309832,
              1.42306401500001
            ],
            [
              103.756368023,
              1.42308978500006
            ],
            [
              103.756420394,
              1.42310032800004
            ],
            [
              103.756481668,
              1.42309419300006
            ],
            [
              103.756597924,
              1.42325930000004
            ],
            [
              103.756656407,
              1.42336123500006
            ],
            [
              103.756706571,
              1.42345178800001
            ],
            [
              103.756725827,
              1.42349701200004
            ],
            [
              103.756735099,
              1.42353434100005
            ],
            [
              103.756746508,
              1.42362407100006
            ],
            [
              103.756923721,
              1.42358113100005
            ],
            [
              103.757231794,
              1.42370714500004
            ],
            [
              103.757303072,
              1.42382805100004
            ],
            [
              103.757355221,
              1.42390059300003
            ],
            [
              103.757588437,
              1.42394587600005
            ],
            [
              103.758588183,
              1.42417540900004
            ],
            [
              103.759401097,
              1.42437796200005
            ],
            [
              103.759601388,
              1.42444448900004
            ],
            [
              103.759769633,
              1.42452512700002
            ],
            [
              103.760230299,
              1.42477308500002
            ],
            [
              103.760502692,
              1.42490412000007
            ],
            [
              103.760710994,
              1.42499887000001
            ],
            [
              103.76074905,
              1.42500895000006
            ],
            [
              103.760775359,
              1.42500266200005
            ]
          ]
        ]
      },
      "properties": {
        "OBJECTID": 331,
        "pcn_loop": "Rail Corridor",
        "pcn": "Rail Corridor",
        "descriptionHTML": null,
        "address": null,
        "Shape__Length": 6560.502855261048
      }
    }
  ]
}